{"type": "FeatureCollection", "features": [ {"type": "Feature", "properties": {"norad_id": 34682, "name": "COSMOS 2251 DEB", "group": "cosmos-2251-debris", "lat": -27.42070088227968, "lon": -75.23155400440686, "alt_km": 690.0345891001789, "timestamp": "2025-12-05T18:53:13.676656+00:00", "meta": {"OBJECT_NAME": "COSMOS 2251 DEB", "OBJECT_ID": "1993-036YC", "EPOCH": "2025-12-03T08:28:16.036032", "MEAN_MOTION": 14.58771685, "ECCENTRICITY": 0.0018745, "INCLINATION": 74.0388, "RA_OF_ASC_NODE": 100.8621, "ARG_OF_PERICENTER": 234.1512, "MEAN_ANOMALY": 157.2088, "EPHEMERIS_TYPE": 0, "CLASSIFICATION_TYPE": "U", "NORAD_CAT_ID": 34682, "ELEMENT_SET_NO": 999, "REV_AT_EPOCH": 88549, "BSTAR": 0.0013546, "MEAN_MOTION_DOT": 6.321e-05, "MEAN_MOTION_DDOT": 0}, "tle": {"line1": "1 34682U 93036YC  25337.35296338  .00006321  00000+0  13546-2 0  9995", "line2": "2 34682  74.0388 100.8621 0018745 234.1512 157.2088 14.58771685885493"}}, "geometry": {"type": "Point", "coordinates": [-75.23155400440686, -27.42070088227968]}}, {"type": "Feature", "properties": {"norad_id": 34683, "name": "COSMOS 2251 DEB", "group": "cosmos-2251-debris", "lat": -40.29712456033778, "lon": -60.30960367624301, "alt_km": 672.1769159712812, "timestamp": "2025-12-05T18:53:13.676666+00:00", "meta": {"OBJECT_NAME": "COSMOS 2251 DEB", "OBJECT_ID": "1993-036YD", "EPOCH": "2025-12-03T18:51:40.823424", "MEAN_MOTION": 14.64268609, "ECCENTRICITY": 0.0018837, "INCLINATION": 74.0284, "RA_OF_ASC_NODE": 109.4798, "ARG_OF_PERICENTER": 224.3122, "MEAN_ANOMALY": 253.6547, "EPHEMERIS_TYPE": 0, "CLASSIFICATION_TYPE": "U", "NORAD_CAT_ID": 34683, "ELEMENT_SET_NO": 999, "REV_AT_EPOCH": 88217, "BSTAR": 0.0021599236, "MEAN_MOTION_DOT": 0.00011406, "MEAN_MOTION_DDOT": 0}, "tle": {"line1": "1 34683U 93036YD  25337.78588916  .00011406  00000+0  21599-2 0  9996", "line2": "2 34683  74.0284 109.4798 0018837 224.3122 253.6547 14.64268609882176"}}, "geometry": {"type": "Point", "coordinates": [-60.30960367624301, -40.29712456033778]}}, {"type": "Feature", "properties": {"norad_id": 34685, "name": "COSMOS 2251 DEB", "group": "cosmos-2251-debris", "lat": -6.496558785632065, "lon": -16.129772878379097, "alt_km": 703.0411466047453, "timestamp": "2025-12-05T18:53:13.676676+00:00", "meta": {"OBJECT_NAME": "COSMOS 2251 DEB", "OBJECT_ID": "1993-036YF", "EPOCH": "2025-12-04T20:54:38.270592", "MEAN_MOTION": 14.57396715, "ECCENTRICITY": 0.00143981, "INCLINATION": 74.0283, "RA_OF_ASC_NODE": 163.7414, "ARG_OF_PERICENTER": 267.7469, "MEAN_ANOMALY": 156.724, "EPHEMERIS_TYPE": 0, "CLASSIFICATION_TYPE": "U", "NORAD_CAT_ID": 34685, "ELEMENT_SET_NO": 999, "REV_AT_EPOCH": 88417, "BSTAR": 0.0022091217, "MEAN_MOTION_DOT": 0.00010018, "MEAN_MOTION_DDOT": 0}, "tle": {"line1": "1 34685U 93036YF  25338.87127628  .00010018  00000+0  22091-2 0  9994", "line2": "2 34685  74.0283 163.7414 0014398 267.7469 156.7240 14.57396715884175"}}, "geometry": {"type": "Point", "coordinates": [-16.129772878379097, -6.496558785632065]}}, {"type": "Feature", "properties": {"norad_id": 34689, "name": "COSMOS 2251 DEB", "group": "cosmos-2251-debris", "lat": -73.32465748597086, "lon": 163.26121292492658, "alt_km": 741.7509817660975, "timestamp": "2025-12-05T18:53:13.676686+00:00", "meta": {"OBJECT_NAME": "COSMOS 2251 DEB", "OBJECT_ID": "1993-036YK", "EPOCH": "2025-12-01T04:52:05.077056", "MEAN_MOTION": 14.04150485, "ECCENTRICITY": 0.0229843, "INCLINATION": 74.0888, "RA_OF_ASC_NODE": 243.4543, "ARG_OF_PERICENTER": 314.8144, "MEAN_ANOMALY": 197.2792, "EPHEMERIS_TYPE": 0, "CLASSIFICATION_TYPE": "U", "NORAD_CAT_ID": 34689, "ELEMENT_SET_NO": 999, "REV_AT_EPOCH": 84179, "BSTAR": 0.0056499, "MEAN_MOTION_DOT": 0.00011323, "MEAN_MOTION_DDOT": 0}, "tle": {"line1": "1 34689U 93036YK  25335.20283654  .00011323  00000+0  56499-2 0  9993", "line2": "2 34689  74.0888 243.4543 0229843 314.8144 197.2792 14.04150485841793"}}, "geometry": {"type": "Point", "coordinates": [163.26121292492658, -73.32465748597086]}}, {"type": "Feature", "properties": {"norad_id": 34721, "name": "COSMOS 2251 DEB", "group": "cosmos-2251-debris", "lat": 43.88035210363427, "lon": 142.21352047164694, "alt_km": 1032.71013477847, "timestamp": "2025-12-05T18:53:13.676696+00:00", "meta": {"OBJECT_NAME": "COSMOS 2251 DEB", "OBJECT_ID": "1993-036YP", "EPOCH": "2025-12-03T18:59:35.690784", "MEAN_MOTION": 13.96776355, "ECCENTRICITY": 0.02239774, "INCLINATION": 73.9228, "RA_OF_ASC_NODE": 341.7745, "ARG_OF_PERICENTER": 282.3054, "MEAN_ANOMALY": 262.1948, "EPHEMERIS_TYPE": 0, "CLASSIFICATION_TYPE": "U", "NORAD_CAT_ID": 34721, "ELEMENT_SET_NO": 999, "REV_AT_EPOCH": 85024, "BSTAR": 0.002612765, "MEAN_MOTION_DOT": 4.461e-05, "MEAN_MOTION_DDOT": 0}, "tle": {"line1": "1 34721U 93036YP  25337.79138531  .00004461  00000+0  26128-2 0  9990", "line2": "2 34721  73.9228 341.7745 0223977 282.3054 262.1948 13.96776355850248"}}, "geometry": {"type": "Point", "coordinates": [142.21352047164694, 43.88035210363427]}}, {"type": "Feature", "properties": {"norad_id": 34722, "name": "COSMOS 2251 DEB", "group": "cosmos-2251-debris", "lat": -14.22843636400616, "lon": -15.7375884968012, "alt_km": 814.1020885604376, "timestamp": "2025-12-05T18:53:13.676706+00:00", "meta": {"OBJECT_NAME": "COSMOS 2251 DEB", "OBJECT_ID": "1993-036YQ", "EPOCH": "2025-12-05T07:07:49.296576", "MEAN_MOTION": 14.11895651, "ECCENTRICITY": 0.01673991, "INCLINATION": 73.8723, "RA_OF_ASC_NODE": 349.3431, "ARG_OF_PERICENTER": 276.1649, "MEAN_ANOMALY": 98.3918, "EPHEMERIS_TYPE": 0, "CLASSIFICATION_TYPE": "U", "NORAD_CAT_ID": 34722, "ELEMENT_SET_NO": 999, "REV_AT_EPOCH": 86140, "BSTAR": 0.0015665515, "MEAN_MOTION_DOT": 3.24e-05, "MEAN_MOTION_DDOT": 0}, "tle": {"line1": "1 34722U 93036YQ  25339.29709834  .00003240  00000+0  15666-2 0  9997", "line2": "2 34722  73.8723 349.3431 0167399 276.1649  98.3918 14.11895651861405"}}, "geometry": {"type": "Point", "coordinates": [-15.7375884968012, -14.22843636400616]}}, {"type": "Feature", "properties": {"norad_id": 34726, "name": "COSMOS 2251 DEB", "group": "cosmos-2251-debris", "lat": -72.73107541667633, "lon": -113.30492812973246, "alt_km": 712.4658558899237, "timestamp": "2025-12-05T18:53:13.676716+00:00", "meta": {"OBJECT_NAME": "COSMOS 2251 DEB", "OBJECT_ID": "1993-036YU", "EPOCH": "2025-12-05T06:10:16.504608", "MEAN_MOTION": 14.59438136, "ECCENTRICITY": 0.00423663, "INCLINATION": 74.0291, "RA_OF_ASC_NODE": 0.5978, "ARG_OF_PERICENTER": 153.6822, "MEAN_ANOMALY": 206.6509, "EPHEMERIS_TYPE": 0, "CLASSIFICATION_TYPE": "U", "NORAD_CAT_ID": 34726, "ELEMENT_SET_NO": 999, "REV_AT_EPOCH": 88393, "BSTAR": 0.00076673461, "MEAN_MOTION_DOT": 3.652e-05, "MEAN_MOTION_DDOT": 0}, "tle": {"line1": "1 34726U 93036YU  25339.25713547  .00003652  00000+0  76673-3 0  9996", "line2": "2 34726  74.0291   0.5978 0042366 153.6822 206.6509 14.59438136883937"}}, "geometry": {"type": "Point", "coordinates": [-113.30492812973246, -72.73107541667633]}}, {"type": "Feature", "properties": {"norad_id": 34728, "name": "COSMOS 2251 DEB", "group": "cosmos-2251-debris", "lat": -36.1633901818625, "lon": 97.37455084573006, "alt_km": 690.1987384042459, "timestamp": "2025-12-05T18:53:13.676726+00:00", "meta": {"OBJECT_NAME": "COSMOS 2251 DEB", "OBJECT_ID": "1993-036YW", "EPOCH": "2025-12-04T14:09:00.728064", "MEAN_MOTION": 14.707163, "ECCENTRICITY": 0.0040788, "INCLINATION": 74.0179, "RA_OF_ASC_NODE": 267.6086, "ARG_OF_PERICENTER": 67.5207, "MEAN_ANOMALY": 293.0275, "EPHEMERIS_TYPE": 0, "CLASSIFICATION_TYPE": "U", "NORAD_CAT_ID": 34728, "ELEMENT_SET_NO": 999, "REV_AT_EPOCH": 88680, "BSTAR": 0.0017603, "MEAN_MOTION_DOT": 0.00010855, "MEAN_MOTION_DDOT": 0}, "tle": {"line1": "1 34728U 93036YW  25338.58959176  .00010855  00000+0  17603-2 0  9993", "line2": "2 34728  74.0179 267.6086 0040788  67.5207 293.0275 14.70716300886800"}}, "geometry": {"type": "Point", "coordinates": [97.37455084573006, -36.1633901818625]}}, {"type": "Feature", "properties": {"norad_id": 34729, "name": "COSMOS 2251 DEB", "group": "cosmos-2251-debris", "lat": -60.80235536748571, "lon": -18.653783778571217, "alt_km": 636.1029168170098, "timestamp": "2025-12-05T18:53:13.676736+00:00", "meta": {"OBJECT_NAME": "COSMOS 2251 DEB", "OBJECT_ID": "1993-036YX", "EPOCH": "2025-12-05T06:47:33.187200", "MEAN_MOTION": 14.8247651, "ECCENTRICITY": 0.00120312, "INCLINATION": 74.0184, "RA_OF_ASC_NODE": 13.1968, "ARG_OF_PERICENTER": 136.9738, "MEAN_ANOMALY": 349.4029, "EPHEMERIS_TYPE": 0, "CLASSIFICATION_TYPE": "U", "NORAD_CAT_ID": 34729, "ELEMENT_SET_NO": 999, "REV_AT_EPOCH": 88347, "BSTAR": 0.0031459005, "MEAN_MOTION_DOT": 0.00025344, "MEAN_MOTION_DDOT": 0}, "tle": {"line1": "1 34729U 93036YX  25339.28302300  .00025344  00000+0  31459-2 0  9997", "line2": "2 34729  74.0184  13.1968 0012031 136.9738 349.4029 14.82476510883472"}}, "geometry": {"type": "Point", "coordinates": [-18.653783778571217, -60.80235536748571]}}, {"type": "Feature", "properties": {"norad_id": 34732, "name": "COSMOS 2251 DEB", "group": "cosmos-2251-debris", "lat": -33.38376791650429, "lon": 95.3108575467084, "alt_km": 728.891032703069, "timestamp": "2025-12-05T18:53:13.676746+00:00", "meta": {"OBJECT_NAME": "COSMOS 2251 DEB", "OBJECT_ID": "1993-036ZA", "EPOCH": "2025-12-04T16:47:36.203712", "MEAN_MOTION": 14.4728614, "ECCENTRICITY": 0.0040472, "INCLINATION": 74.0441, "RA_OF_ASC_NODE": 108.2089, "ARG_OF_PERICENTER": 260.6774, "MEAN_ANOMALY": 161.6172, "EPHEMERIS_TYPE": 0, "CLASSIFICATION_TYPE": "U", "NORAD_CAT_ID": 34732, "ELEMENT_SET_NO": 999, "REV_AT_EPOCH": 88027, "BSTAR": 0.00029648403, "MEAN_MOTION_DOT": 1.068e-05, "MEAN_MOTION_DDOT": 0}, "tle": {"line1": "1 34732U 93036ZA  25338.69972458  .00001068  00000+0  29648-3 0  9997", "line2": "2 34732  74.0441 108.2089 0040472 260.6774 161.6172 14.47286140880274"}}, "geometry": {"type": "Point", "coordinates": [95.3108575467084, -33.38376791650429]}}]}